NORAD_CAT_ID,OBJECT_NAME,OBJECT_TYPE,EPOCH,MEAN_MOTION,ECCENTRICITY,INCLINATION,RA_OF_ASC_NODE,ARG_OF_PERICENTER,MEAN_ANOMALY,BSTAR,MEAN_MOTION_DOT,MEAN_MOTION_DDOT,TLE_LINE0,TLE_LINE1,TLE_LINE2,SEMIMAJOR_AXIS,PERIOD,APOGEE,PERIGEE,DECAYED
53748.0,STARLINK-4669,PAYLOAD,2024-01-21 15:14:52,15.10097318,6.55e-05,53.2131,156.9457,71.6902,288.4162,0.0019629,0.00032193,0.0,0 STARLINK-4669,1 53748U 22107BA  24021.63532783  .00032193  00000-0  19629-2 0  9992,2 53748  53.2131 156.9457 0000655  71.6902 288.4162 15.10097318 77136,6914.04,95.358,536.358,535.452,0.0
53748.0,STARLINK-4669,PAYLOAD,2024-01-22 15:04:25,15.10162109,6.76e-05,53.2137,152.4792,67.0749,293.0315,0.0018857,0.00030966,0.0,0 STARLINK-4669,1 53748U 22107BA  24022.62807629  .00030966  00000-0  18857-2 0  9994,2 53748  53.2137 152.4792 0000676  67.0749 293.0315 15.10162109 77285,6913.842,95.354,536.175,535.24,0.0
53748.0,STARLINK-4669,PAYLOAD,2024-01-23 11:43:19,15.1023296,6.97e-05,53.2154,148.6091,96.0863,264.0209,0.0022797,0.00037605,0.0,0 STARLINK-4669,1 53748U 22107BA  24023.48841842  .00037605  00000-0  22797-2 0  9999,2 53748  53.2154 148.6091 0000697  96.0863 264.0209 15.10232960 76636,6913.626,95.35,535.973,535.009,0.0
53748.0,STARLINK-4669,PAYLOAD,2024-01-23 14:53:55,15.10210591,9.76e-05,53.2153,148.0139,53.2556,306.8526,0.0006627,0.00010677,0.0,0 STARLINK-4669,1 53748U 22107BA  24023.62078141  .00010677  00000-0  66270-3 0  9994,2 53748  53.2153 148.0139 0000976  53.2556 306.8526 15.10210591 76651,6913.694,95.351,536.234,534.884,0.0
53748.0,STARLINK-4669,PAYLOAD,2024-01-24 11:32:47,15.1025912,8.1e-05,53.2161,144.1461,89.5175,270.591,0.0023945,0.00039553,0.0,0 STARLINK-4669,1 53748U 22107BA  24024.48110656  .00039553  00000-0  23945-2 0  9992,2 53748  53.2161 144.1461 0000810  89.5175 270.5910 15.10259120 76780,6913.546,95.348,535.971,534.851,0.0
53748.0,STARLINK-4669,PAYLOAD,2024-01-24 13:08:05,15.10260306,8.69e-05,53.216,143.8501,75.885,284.224,0.0022112,0.00036489,0.0,0 STARLINK-4669,1 53748U 22107BA  24024.54728507  .00036489  00000-0  22112-2 0  9999,2 53748  53.2160 143.8501 0000869  75.8850 284.2240 15.10260306 77576,6913.542,95.348,536.008,534.807,0.0
53748.0,STARLINK-4669,PAYLOAD,2024-01-25 14:32:46,15.10342252,8.82e-05,53.216,139.0879,75.1853,284.9238,0.0021793,0.00036037,0.0,0 STARLINK-4669,1 53748U 22107BA  24025.60609548  .00036037  00000-0  21793-2 0  9993,2 53748  53.2160 139.0879 0000882  75.1853 284.9238 15.10342252 77735,6913.292,95.343,535.767,534.548,0.0
53748.0,STARLINK-4669,PAYLOAD,2024-01-26 12:46:48,15.10415332,0.0001061,53.2158,134.9157,52.8959,307.213,0.0022308,0.00036976,0.0,0 STARLINK-4669,1 53748U 22107BA  24026.53250786  .00036976  00000-0  22308-2 0  9997,2 53748  53.2158 134.9157 0001061  52.8959 307.2130 15.10415332 77879,6913.069,95.338,535.668,534.201,0.0
53748.0,STARLINK-4669,PAYLOAD,2024-01-27 12:36:03,15.10501197,0.0001199,53.2156,130.4497,52.4223,307.6879,0.0026452,0.00044047,0.0,0 STARLINK-4669,1 53748U 22107BA  24027.52504163  .00044047  00000-0  26452-2 0  9990,2 53748  53.2156 130.4497 0001199  52.4223 307.6879 15.10501197 77247,6912.807,95.333,535.501,533.844,0.0
53748.0,STARLINK-4669,PAYLOAD,2024-01-27 14:11:20,15.10502399,0.0001351,53.2151,130.1482,44.4594,315.6507,0.0023488,0.00039053,0.0,0 STARLINK-4669,1 53748U 22107BA  24027.59120892  .00039053  00000-0  23488-2 0  9997,2 53748  53.2151 130.1482 0001351  44.4594 315.6507 15.10502399 78035,6912.804,95.333,535.603,533.735,0.0
53748.0,STARLINK-4669,PAYLOAD,2024-01-27 17:21:54,15.10513238,0.0001325,53.2151,129.5541,46.6951,313.4152,0.0023786,0.00039567,0.0,0 STARLINK-4669,1 53748U 22107BA  24027.72354250  .00039567  00000-0  23786-2 0  9990,2 53748  53.2151 129.5541 0001325  46.6951 313.4152 15.10513238 78053,6912.771,95.332,535.552,533.72,0.0
53748.0,STARLINK-4669,PAYLOAD,2024-01-28 10:49:57,15.10567564,0.0001458,53.2147,126.2783,44.9651,315.146,0.0021405,0.00035611,0.0,0 STARLINK-4669,1 53748U 22107BA  24028.45136001  .00035611  00000-0  21405-2 0  9995,2 53748  53.2147 126.2783 0001458  44.9651 315.1460 15.10567564 77382,6912.605,95.328,535.478,533.462,0.0
53748.0,STARLINK-4669,PAYLOAD,2024-01-28 14:00:30,15.10579421,0.000155,53.2147,125.6827,42.9559,317.1555,0.0023243,0.00038723,0.0,0 STARLINK-4669,1 53748U 22107BA  24028.58368796  .00038723  00000-0  23243-2 0  9996,2 53748  53.2147 125.6827 0001550  42.9559 317.1555 15.10579421 78183,6912.569,95.328,535.505,533.362,0.0
53748.0,STARLINK-4669,PAYLOAD,2024-01-29 12:14:32,15.10132909,4.39e-05,53.2147,121.514,67.9512,292.1527,-0.0070012,-0.00113921,0.0,0 STARLINK-4669,1 53748U 22107BA  24029.51009972 -.00113921  00000-0 -70012-2 0  9990,2 53748  53.2147 121.5140 0000439  67.9512 292.1527 15.10132909 77543,6913.931,95.356,536.1,535.493,0.0
53748.0,STARLINK-4669,PAYLOAD,2024-01-29 21:46:30,15.09769488,0.0001361,53.2145,119.7289,56.3713,303.7409,-0.010276,-0.00164262,0.0,0 STARLINK-4669,1 53748U 22107BA  24029.90729655 -.00164262  00000-0 -10276-1 0  9999,2 53748  53.2145 119.7289 0001361  56.3713 303.7409 15.09769488 78381,6915.041,95.379,537.847,535.965,0.0
53748.0,STARLINK-4669,PAYLOAD,2024-01-30 12:04:43,15.09243037,0.0002029,53.2146,117.0504,32.8213,327.2905,-0.0081091,-0.00128467,0.0,0 STARLINK-4669,1 53748U 22107BA  24030.50328413 -.00128467  00000-0 -81091-2 0  9995,2 53748  53.2146 117.0504 0002029  32.8213 327.2905 15.09243037 77691,6916.649,95.412,539.917,537.11,0.0
53748.0,STARLINK-4669,PAYLOAD,2024-01-30 22:00:00,15.08640615,0.0001366,53.2138,115.194,74.1529,12.6804,-0.033782,-0.00504092,0.0,0 STARLINK-4669,1 53748U 22107BA  24030.91667824 -.00504092  00000-0 -33782-1 0  9997,2 53748  53.2138 115.1940 0001366  74.1529  12.6804 15.08640615 77759,6918.49,95.45,541.3,539.41,0.0
53748.0,STARLINK-4669,PAYLOAD,2024-01-31 00:00:02,15.08539291,0.0001328,53.214,114.8195,78.8658,100.8592,-0.031605,-0.00472096,0.0,0 STARLINK-4669,1 53748U 22107BA  24031.00002315 -.00472096  00000-0 -31605-1 0  9996,2 53748  53.2140 114.8195 0001328  78.8658 100.8592 15.08539291  5833,6918.8,95.457,541.584,539.746,0.0
53748.0,STARLINK-4669,PAYLOAD,2024-01-31 06:00:02,15.08237112,0.0001353,53.2144,113.6976,81.7616,16.2841,-0.018872,-0.0028424,0.0,0 STARLINK-4669,1 53748U 22107BA  24031.25002315 -.00284240  00000-0 -18872-1 0  9996,2 53748  53.2144 113.6976 0001353  81.7616  16.2841 15.08237112 77806,6919.724,95.476,542.525,540.653,0.0
53748.0,STARLINK-4669,PAYLOAD,2024-01-31 14:00:01,15.08002422,0.0001438,53.2147,112.2045,72.0077,36.7889,0.0011264,0.00017279,0.0,0 STARLINK-4669,1 53748U 22107BA  24031.58335648  .00017279  00000-0  11264-2 0  9993,2 53748  53.2147 112.2045 0001438  72.0077  36.7889 15.08002422 77857,6920.442,95.491,543.302,541.312,0.0
53748.0,STARLINK-4669,PAYLOAD,2024-01-31 22:00:00,15.08027913,0.0001354,53.215,110.7088,75.5985,43.7305,-0.0016499,-0.00025876,0.0,0 STARLINK-4669,1 53748U 22107BA  24031.91667824 -.00025876  00000-0 -16499-2 0  9993,2 53748  53.2150 110.7088 0001354  75.5985  43.7305 15.08027913  5577,6920.364,95.489,543.166,541.292,0.0
53748.0,STARLINK-4669,PAYLOAD,2024-02-01 14:00:01,15.0802283,0.0001446,53.216,107.7208,79.1068,61.4909,-0.0021048,-0.00032895,0.0,0 STARLINK-4669,1 53748U 22107BA  24032.58334491 -.00032895  00000-0 -21048-2 0  9993,2 53748  53.2160 107.7208 0001446  79.1068  61.4909 15.08022830  5673,6920.379,95.489,543.245,541.244,0.0
53748.0,STARLINK-4669,PAYLOAD,2024-02-01 22:00:00,15.08014154,0.0001389,53.2161,106.225,87.4289,63.7735,0.00043297,6.458e-05,0.0,0 STARLINK-4669,1 53748U 22107BA  24032.91667824  .00006458  00000-0  43297-3 0  9994,2 53748  53.2161 106.2250 0001389  87.4289  63.7735 15.08014154 78052,6920.406,95.49,543.232,541.31,0.0
53748.0,STARLINK-4669,PAYLOAD,2024-02-02 14:00:01,15.08006679,0.0001453,53.2163,103.2373,87.8848,84.5517,-0.0010872,-0.00017159,0.0,0 STARLINK-4669,1 53748U 22107BA  24033.58334491 -.00017159  00000-0 -10872-2 0  9993,2 53748  53.2163 103.2373 0001453  87.8848  84.5517 15.08006679  5821,6920.429,95.49,543.299,541.288,0.0
53748.0,STARLINK-4669,PAYLOAD,2024-02-02 22:00:00,15.08001036,0.0001426,53.2161,101.7414,97.5582,85.4692,0.00069812,0.0001059,0.0,0 STARLINK-4669,1 53748U 22107BA  24033.91667824  .00010590  00000-0  69812-3 0  9998,2 53748  53.2161 101.7414 0001426  97.5582  85.4692 15.08001036  5771,6920.446,95.491,543.298,541.324,0.0
53748.0,STARLINK-4669,PAYLOAD,2024-02-03 03:33:16,15.08018651,0.0002769,53.2182,100.6996,137.904,222.2165,-0.00011971,-2.149e-05,0.0,0 STARLINK-4669,1 53748U 22107BA  24034.14810713 -.00002149  00000-0 -11971-3 0  9997,2 53748  53.2182 100.6996 0002769 137.9040 222.2165 15.08018651 78245,6920.392,95.49,544.173,540.341,0.0
53748.0,STARLINK-4669,PAYLOAD,2024-02-03 09:55:01,15.08033261,0.0001379,53.2171,99.513,55.8584,304.2539,0.00027373,3.978e-05,0.0,0 STARLINK-4669,1 53748U 22107BA  24034.41320902  .00003978  00000-0  27373-3 0  9995,2 53748  53.2171  99.5130 0001379  55.8584 304.2539 15.08033261 79067,6920.347,95.489,543.167,541.258,0.0
53748.0,STARLINK-4669,PAYLOAD,2024-02-04 11:22:02,15.0802221,0.0001685,53.2176,94.7608,78.153,281.9651,0.00032342,4.751e-05,0.0,0 STARLINK-4669,1 53748U 22107BA  24035.47363655  .00004751  00000-0  32342-3 0  9996,2 53748  53.2176  94.7608 0001685  78.1530 281.9651 15.08022210 78447,6920.381,95.489,543.412,541.08,0.0
53748.0,STARLINK-4669,PAYLOAD,2024-02-04 12:57:28,15.08027506,0.0001602,53.2176,94.4648,94.456,265.6615,0.00044518,6.651e-05,0.0,0 STARLINK-4669,1 53748U 22107BA  24035.53991120  .00006651  00000-0  44518-3 0  9996,2 53748  53.2176  94.4648 0001602  94.4560 265.6615 15.08027506 79231,6920.365,95.489,543.339,541.121,0.0
53748.0,STARLINK-4669,PAYLOAD,2024-02-05 11:13:36,15.08030708,0.0001672,53.2173,90.3053,89.2996,270.8187,0.00027944,4.067e-05,0.0,0 STARLINK-4669,1 53748U 22107BA  24036.46777962  .00004067  00000-0  27944-3 0  9998,2 53748  53.2173  90.3053 0001672  89.2996 270.8187 15.08030708 78593,6920.355,95.489,543.377,541.063,0.0
